{
  "type": "FeatureCollection",
  "features": [
    {
      "type": "Feature",
      "properties": {
        "norad_id": 66877,
        "name": "DUMMY PAYLOAD",
        "group": "last-30-days",
        "lat": -49.65695784231098,
        "lon": 38.90166593904186,
        "alt_km": 704.4275589789431,
        "timestamp": "2025-12-04T10:51:48.877979+00:00",
        "meta_object_name": "DUMMY PAYLOAD",
        "meta_object_id": "2025-282A",
        "meta_epoch": "2025-12-03T15:09:12.901248",
        "meta_mean_motion": 14.3609088,
        "meta_eccentricity": 0.08801968,
        "meta_inclination": 56.9533,
        "meta_ra_of_asc_node": 91.9802,
        "meta_arg_of_pericenter": 204.505,
        "meta_mean_anomaly": 151.1619,
        "meta_ephemeris_type": 0,
        "meta_classification_type": "U",
        "meta_norad_cat_id": 66877,
        "meta_element_set_no": 999,
        "meta_rev_at_epoch": 7,
        "meta_bstar": 0.00014053244,
        "meta_mean_motion_dot": 0.00737234,
        "meta_mean_motion_ddot": 7.156601e-06,
        "tle_line1": "1 66877U 25282A   25337.63139932  .00737234  71566-5  14053-3 0  9991",
        "tle_line2": "2 66877  56.9533  91.9802 0880196 204.5050 151.1619 14.36090880    74"
      },
      "geometry": {
        "type": "Point",
        "coordinates": [
          38.90166593904186,
          -49.65695784231098
        ]
      }
    }
  ]
}